ISS (ZARYA)             
1 25544U 98067A   26067.41623043  .00011291  00000+0  21617-3 0  9997
2 25544  51.6319  78.6521 0008065 170.0958 190.0190 15.48526204556132
POISK                   
1 36086U 09060A   26067.41623043  .00011291  00000+0  21617-3 0  9995
2 36086  51.6319  78.6521 0008065 170.0958 190.0190 15.48526204554447
CSS (TIANHE)            
1 48274U 21035A   26067.62769441  .00027939  00000+0  33080-3 0  9992
2 48274  41.4663 214.6233 0006946 266.6705  93.3339 15.60596510277441
ISS (NAUKA)             
1 49044U 21066A   26067.41623043  .00011291  00000+0  21617-3 0  9993
2 49044  51.6319  78.6521 0008065 170.0958 190.0190 15.48526204554456
FREGAT DEB              
1 49271U 11037PF  26067.63577842  .00028623  00000+0  41345-1 0  9996
2 49271  51.6505 303.9097 0958774  57.0351 311.9031 12.40118152212568
CSS (WENTIAN)           
1 53239U 22085A   26067.62769441  .00027939  00000+0  33080-3 0  9995
2 53239  41.4663 214.6233 0006946 266.6705  93.3339 15.60596510275615
CSS (MENGTIAN)          
1 54216U 22143A   26067.62769441  .00027939  00000+0  33080-3 0  9996
2 54216  41.4663 214.6233 0006946 266.6705  93.3339 15.60596510275587
PROGRESS-MS 31          
1 64751U 25146A   26067.41623043  .00011291  00000+0  21617-3 0  9998
2 64751  51.6319  78.6521 0008065 170.0958 190.0190 15.48526204554469
TIANZHOU-9              
1 64786U 25149A   26067.62769441  .00027939  00000+0  33080-3 0  9998
2 64786  41.4663 214.6233 0006946 266.6705  93.3339 15.60596510275591
PROGRESS-MS 32          
1 65586U 25204A   26067.41623043  .00011291  00000+0  21617-3 0  9990
2 65586  51.6319  78.6521 0008065 170.0958 190.0190 15.48526204554501
CYGNUS NG-23            
1 65616U 25208A   26067.41623043  .00011291  00000+0  21617-3 0  9998
2 65616  51.6319  78.6521 0008065 170.0958 190.0190 15.48526204554516
ISS OBJECT XK           
1 65731U 98067XK  26067.33170350  .02881675  11879-4  13172-2 0  9998
2 65731  51.6118  53.1246 0002843 127.3723 232.7555 16.21196240 26682
